{
    "links": {
        "self": "http://www.neowsapp.com/rest/v1/neo/3773753?api_key=iIulBulltgU6a56xZRHN4H3l9WmuAYTsLGpBGhQ2"
    },
    "id": "3773753",
    "neo_reference_id": "3773753",
    "name": "(2017 GL4)",
    "designation": "2017 GL4",
    "nasa_jpl_url": "http://ssd.jpl.nasa.gov/sbdb.cgi?sstr=3773753",
    "absolute_magnitude_h": 25.9,
    "estimated_diameter": {
        "kilometers": {
            "estimated_diameter_min": 0.0175612318,
            "estimated_diameter_max": 0.0392681082
        },
        "meters": {
            "estimated_diameter_min": 17.561231848,
            "estimated_diameter_max": 39.2681081809
        },
        "miles": {
            "estimated_diameter_min": 0.0109120402,
            "estimated_diameter_max": 0.0244000636
        },
        "feet": {
            "estimated_diameter_min": 57.6155918963,
            "estimated_diameter_max": 128.8323800441
        }
    },
    "is_potentially_hazardous_asteroid": false,
    "close_approach_data": [
        {
            "close_approach_date": "1950-07-01",
            "close_approach_date_full": "1950-Jul-01 06:12",
            "epoch_date_close_approach": -615491280000,
            "relative_velocity": {
                "kilometers_per_second": "18.5544269564",
                "kilometers_per_hour": "66795.9370431746",
                "miles_per_hour": "41504.3976588548"
            },
            "miss_distance": {
                "astronomical": "0.4322896812",
                "lunar": "168.1606859868",
                "kilometers": "64669615.530499044",
                "miles": "40183835.7414290472"
            },
            "orbiting_body": "Earth"
        },
        {
            "close_approach_date": "2001-03-24",
            "close_approach_date_full": "2001-Mar-24 13:16",
            "epoch_date_close_approach": 985439760000,
            "relative_velocity": {
                "kilometers_per_second": "14.7534639793",
                "kilometers_per_hour": "53112.4703255275",
                "miles_per_hour": "33002.0235753257"
            },
            "miss_distance": {
                "astronomical": "0.28115727",
                "lunar": "109.37017803",
                "kilometers": "42060528.7270149",
                "miles": "26135200.64560962"
            },
            "orbiting_body": "Earth"
        },
        {
            "close_approach_date": "2009-04-05",
            "close_approach_date_full": "2009-Apr-05 20:52",
            "epoch_date_close_approach": 1238964720000,
            "relative_velocity": {
                "kilometers_per_second": "10.0896461969",
                "kilometers_per_hour": "36322.7263088306",
                "miles_per_hour": "22569.5295778398"
            },
            "miss_distance": {
                "astronomical": "0.1268679431",
                "lunar": "49.3516298659",
                "kilometers": "18979174.059041197",
                "miles": "11793111.9064226386"
            },
            "orbiting_body": "Earth"
        },
        {
            "close_approach_date": "2017-04-20",
            "close_approach_date_full": "2017-Apr-20 05:49",
            "epoch_date_close_approach": 1492667340000,
            "relative_velocity": {
                "kilometers_per_second": "7.3716290175",
                "kilometers_per_hour": "26537.8644630093",
                "miles_per_hour": "16489.5969492515"
            },
            "miss_distance": {
                "astronomical": "0.0447386575",
                "lunar": "17.4033377675",
                "kilometers": "6692807.868659525",
                "miles": "4158717.967270445"
            },
            "orbiting_body": "Earth"
        },
        {
            "close_approach_date": "2124-04-23",
            "close_approach_date_full": "2124-Apr-23 20:22",
            "epoch_date_close_approach": 4869577320000,
            "relative_velocity": {
                "kilometers_per_second": "7.2118145056",
                "kilometers_per_hour": "25962.5322201615",
                "miles_per_hour": "16132.1078675776"
            },
            "miss_distance": {
                "astronomical": "0.0421143408",
                "lunar": "16.3824785712",
                "kilometers": "6300215.680134096",
                "miles": "3914772.4932226848"
            },
            "orbiting_body": "Earth"
        }
    ],
    "orbital_data": {
        "orbit_id": "5",
        "orbit_determination_date": "2017-04-26 06:21:15",
        "first_observation_date": "2017-03-21",
        "last_observation_date": "2017-04-26",
        "data_arc_in_days": 36,
        "observations_used": 28,
        "orbit_uncertainty": "6",
        "minimum_orbit_intersection": ".0392146",
        "jupiter_tisserand_invariant": "3.777",
        "epoch_osculation": "2459000.5",
        "eccentricity": ".463437356554982",
        "semi_major_axis": "1.923718032757956",
        "inclination": "5.593840114664834",
        "ascending_node_longitude": "201.5563620899556",
        "orbital_period": "974.5644179604375",
        "perihelion_distance": "1.032195232899459",
        "perihelion_argument": "24.13502357571369",
        "aphelion_distance": "2.815240832616454",
        "perihelion_time": "2458851.428151738304",
        "mean_anomaly": "55.06651421413711",
        "mean_motion": ".3693957971022642",
        "equinox": "J2000",
        "orbit_class": {
            "orbit_class_type": "AMO",
            "orbit_class_description": "Near-Earth asteroid orbits similar to that of 1221 Amor",
            "orbit_class_range": "1.017 AU < q (perihelion) < 1.3 AU"
        }
    },
    "is_sentry_object": false
}